{"type": "FeatureCollection", "features": [ {"type": "Feature", "properties": {"norad_id": 51444, "name": "CSG-2", "group": "resource", "lat": -1.4410788838624902, "lon": -20.797995935139436, "alt_km": 625.8091797721354, "timestamp": "2025-12-03T22:42:32.314503+00:00", "meta": {"OBJECT_NAME": "CSG-2", "OBJECT_ID": "2022-008A", "EPOCH": "2025-12-03T12:10:19.156224", "MEAN_MOTION": 14.82148519, "ECCENTRICITY": 0.0001484, "INCLINATION": 97.8806, "RA_OF_ASC_NODE": 158.9694, "ARG_OF_PERICENTER": 89.9683, "MEAN_ANOMALY": 270.17, "EPHEMERIS_TYPE": 0, "CLASSIFICATION_TYPE": "U", "NORAD_CAT_ID": 51444, "ELEMENT_SET_NO": 999, "REV_AT_EPOCH": 20760, "BSTAR": 0.00013594, "MEAN_MOTION_DOT": 1.03e-05, "MEAN_MOTION_DDOT": 0}, "tle": {"line1": "1 51444U 22008A   25337.50716616  .00001030  00000+0  13594-3 0  9990", "line2": "2 51444  97.8806 158.9694 0001484  89.9683 270.1700 14.82148519207605"}}, "geometry": {"type": "Point", "coordinates": [-20.797995935139436, -1.4410788838624902]}}, {"type": "Feature", "properties": {"norad_id": 52912, "name": "GAOFEN-12 03", "group": "resource", "lat": 0.917799074561868, "lon": 45.6246428006703, "alt_km": 633.9839147500406, "timestamp": "2025-12-03T22:42:32.314512+00:00", "meta": {"OBJECT_NAME": "GAOFEN-12 03", "OBJECT_ID": "2022-069A", "EPOCH": "2025-12-03T13:47:15.159264", "MEAN_MOTION": 14.7957274, "ECCENTRICITY": 0.0002311, "INCLINATION": 97.8487, "RA_OF_ASC_NODE": 225.135, "ARG_OF_PERICENTER": 75.3685, "MEAN_ANOMALY": 284.7783, "EPHEMERIS_TYPE": 0, "CLASSIFICATION_TYPE": "U", "NORAD_CAT_ID": 52912, "ELEMENT_SET_NO": 999, "REV_AT_EPOCH": 18568, "BSTAR": 0.00024291, "MEAN_MOTION_DOT": 1.768e-05, "MEAN_MOTION_DDOT": 0}, "tle": {"line1": "1 52912U 22069A   25337.57448101  .00001768  00000+0  24291-3 0  9990", "line2": "2 52912  97.8487 225.1350 0002311  75.3685 284.7783 14.79572740185686"}}, "geometry": {"type": "Point", "coordinates": [45.6246428006703, 0.917799074561868]}}, {"type": "Feature", "properties": {"norad_id": 54754, "name": "SWOT", "group": "resource", "lat": 37.426325021672575, "lon": 109.1764167572477, "alt_km": 890.0571543265041, "timestamp": "2025-12-03T22:42:32.314522+00:00", "meta": {"OBJECT_NAME": "SWOT", "OBJECT_ID": "2022-173A", "EPOCH": "2025-12-03T11:44:47.044032", "MEAN_MOTION": 14.00172442, "ECCENTRICITY": 3.1e-05, "INCLINATION": 77.6099, "RA_OF_ASC_NODE": 299.4775, "ARG_OF_PERICENTER": 137.8148, "MEAN_ANOMALY": 222.3028, "EPHEMERIS_TYPE": 0, "CLASSIFICATION_TYPE": "U", "NORAD_CAT_ID": 54754, "ELEMENT_SET_NO": 999, "REV_AT_EPOCH": 15176, "BSTAR": 6.6311e-05, "MEAN_MOTION_DOT": 9.5e-07, "MEAN_MOTION_DDOT": 0}, "tle": {"line1": "1 54754U 22173A   25337.48943338  .00000095  00000+0  66311-4 0  9996", "line2": "2 54754  77.6099 299.4775 0000310 137.8148 222.3028 14.00172442151768"}}, "geometry": {"type": "Point", "coordinates": [109.1764167572477, 37.426325021672575]}}, {"type": "Feature", "properties": {"norad_id": 57654, "name": "GAOFEN-12 04", "group": "resource", "lat": -14.276060805992874, "lon": -104.13509671260219, "alt_km": 634.9788817371918, "timestamp": "2025-12-03T22:42:32.314531+00:00", "meta": {"OBJECT_NAME": "GAOFEN-12 04", "OBJECT_ID": "2023-123A", "EPOCH": "2025-12-03T13:02:09.773088", "MEAN_MOTION": 14.79654662, "ECCENTRICITY": 0.000145, "INCLINATION": 97.9113, "RA_OF_ASC_NODE": 253.4404, "ARG_OF_PERICENTER": 71.0861, "MEAN_ANOMALY": 289.0508, "EPHEMERIS_TYPE": 0, "CLASSIFICATION_TYPE": "U", "NORAD_CAT_ID": 57654, "ELEMENT_SET_NO": 999, "REV_AT_EPOCH": 12369, "BSTAR": 0.00028708, "MEAN_MOTION_DOT": 2.102e-05, "MEAN_MOTION_DDOT": 0}, "tle": {"line1": "1 57654U 23123A   25337.54316867  .00002102  00000+0  28708-3 0  9990", "line2": "2 57654  97.9113 253.4404 0001450  71.0861 289.0508 14.79654662123697"}}, "geometry": {"type": "Point", "coordinates": [-104.13509671260219, -14.276060805992874]}}, {"type": "Feature", "properties": {"norad_id": 59065, "name": "PARS 1", "group": "resource", "lat": -68.6499445020833, "lon": 109.10451849710495, "alt_km": 459.05896524960826, "timestamp": "2025-12-03T22:42:32.314540+00:00", "meta": {"OBJECT_NAME": "PARS 1", "OBJECT_ID": "2024-039Q", "EPOCH": "2025-12-03T12:16:32.452608", "MEAN_MOTION": 15.40653798, "ECCENTRICITY": 0.0012656, "INCLINATION": 97.4618, "RA_OF_ASC_NODE": 308.2519, "ARG_OF_PERICENTER": 99.4036, "MEAN_ANOMALY": 260.8641, "EPHEMERIS_TYPE": 0, "CLASSIFICATION_TYPE": "U", "NORAD_CAT_ID": 59065, "ELEMENT_SET_NO": 999, "REV_AT_EPOCH": 9846, "BSTAR": 0.00036444, "MEAN_MOTION_DOT": 0.00014821, "MEAN_MOTION_DDOT": 0}, "tle": {"line1": "1 59065U 24039Q   25337.51148672  .00014821  00000+0  36444-3 0  9996", "line2": "2 59065  97.4618 308.2519 0012656  99.4036 260.8641 15.40653798 98463"}}, "geometry": {"type": "Point", "coordinates": [109.10451849710495, -68.6499445020833]}}, {"type": "Feature", "properties": {"norad_id": 59371, "name": "RESURS-P 4", "group": "resource", "lat": -49.53175150326207, "lon": -66.95694965095232, "alt_km": 477.21021788618145, "timestamp": "2025-12-03T22:42:32.314549+00:00", "meta": {"OBJECT_NAME": "RESURS-P 4", "OBJECT_ID": "2024-061A", "EPOCH": "2025-12-03T13:31:17.201856", "MEAN_MOTION": 15.31970087, "ECCENTRICITY": 0.0002153, "INCLINATION": 97.2529, "RA_OF_ASC_NODE": 284.0828, "ARG_OF_PERICENTER": 54.8453, "MEAN_ANOMALY": 305.299, "EPHEMERIS_TYPE": 0, "CLASSIFICATION_TYPE": "U", "NORAD_CAT_ID": 59371, "ELEMENT_SET_NO": 999, "REV_AT_EPOCH": 9380, "BSTAR": 0.00020443, "MEAN_MOTION_DOT": 6.234e-05, "MEAN_MOTION_DDOT": 0}, "tle": {"line1": "1 59371U 24061A   25337.56339354  .00006234  00000+0  20443-3 0  9996", "line2": "2 59371  97.2529 284.0828 0002153  54.8453 305.2990 15.31970087 93802"}}, "geometry": {"type": "Point", "coordinates": [-66.95694965095232, -49.53175150326207]}}, {"type": "Feature", "properties": {"norad_id": 59625, "name": "LEGION 1", "group": "resource", "lat": -50.93964970245141, "lon": 62.03251868200946, "alt_km": 521.5578582938606, "timestamp": "2025-12-03T22:42:32.314558+00:00", "meta": {"OBJECT_NAME": "LEGION 1", "OBJECT_ID": "2024-081A", "EPOCH": "2025-12-03T11:50:57.795072", "MEAN_MOTION": 15.1633009, "ECCENTRICITY": 0.0004694, "INCLINATION": 97.523, "RA_OF_ASC_NODE": 52.2119, "ARG_OF_PERICENTER": 353.9571, "MEAN_ANOMALY": 6.1604, "EPHEMERIS_TYPE": 0, "CLASSIFICATION_TYPE": "U", "NORAD_CAT_ID": 59625, "ELEMENT_SET_NO": 999, "REV_AT_EPOCH": 8787, "BSTAR": 0.00039103, "MEAN_MOTION_DOT": 7.518e-05, "MEAN_MOTION_DDOT": 0}, "tle": {"line1": "1 59625U 24081A   25337.49372448  .00007518  00000+0  39103-3 0  9992", "line2": "2 59625  97.5230  52.2119 0004694 353.9571   6.1604 15.16330090 87876"}}, "geometry": {"type": "Point", "coordinates": [62.03251868200946, -50.93964970245141]}}, {"type": "Feature", "properties": {"norad_id": 59626, "name": "LEGION 2", "group": "resource", "lat": 51.31519096966929, "lon": -117.75262801042814, "alt_km": 516.1869886295572, "timestamp": "2025-12-03T22:42:32.314567+00:00", "meta": {"OBJECT_NAME": "LEGION 2", "OBJECT_ID": "2024-081B", "EPOCH": "2025-12-03T11:03:36.372960", "MEAN_MOTION": 15.16341266, "ECCENTRICITY": 0.0006243, "INCLINATION": 97.5233, "RA_OF_ASC_NODE": 52.266, "ARG_OF_PERICENTER": 331.4683, "MEAN_ANOMALY": 28.6207, "EPHEMERIS_TYPE": 0, "CLASSIFICATION_TYPE": "U", "NORAD_CAT_ID": 59626, "ELEMENT_SET_NO": 999, "REV_AT_EPOCH": 8787, "BSTAR": 0.00035184, "MEAN_MOTION_DOT": 6.76e-05, "MEAN_MOTION_DDOT": 0}, "tle": {"line1": "1 59626U 24081B   25337.46083765  .00006760  00000+0  35184-3 0  9994", "line2": "2 59626  97.5233  52.2660 0006243 331.4683  28.6207 15.16341266 87873"}}, "geometry": {"type": "Point", "coordinates": [-117.75262801042814, 51.31519096966929]}}, {"type": "Feature", "properties": {"norad_id": 60182, "name": "ALOS-4 (DAICHI-4)", "group": "resource", "lat": -52.28088183212538, "lon": -117.45521986546852, "alt_km": 638.6537775120887, "timestamp": "2025-12-03T22:42:32.314576+00:00", "meta": {"OBJECT_NAME": "ALOS-4 (DAICHI-4)", "OBJECT_ID": "2024-123A", "EPOCH": "2025-11-30T09:15:12.370176", "MEAN_MOTION": 14.79468497, "ECCENTRICITY": 0.000127, "INCLINATION": 97.9232, "RA_OF_ASC_NODE": 69.4089, "ARG_OF_PERICENTER": 105.4124, "MEAN_ANOMALY": 254.7228, "EPHEMERIS_TYPE": 0, "CLASSIFICATION_TYPE": "U", "NORAD_CAT_ID": 60182, "ELEMENT_SET_NO": 999, "REV_AT_EPOCH": 7648, "BSTAR": -8.429942e-06, "MEAN_MOTION_DOT": -1.14e-06, "MEAN_MOTION_DDOT": 0}, "tle": {"line1": "1 60182U 24123A   25334.38555984 -.00000114  00000+0 -84299-5 0  9997", "line2": "2 60182  97.9232  69.4089 0001270 105.4124 254.7228 14.79468497 76488"}}, "geometry": {"type": "Point", "coordinates": [-117.45521986546852, -52.28088183212538]}}, {"type": "Feature", "properties": {"norad_id": 60452, "name": "LEGION 3", "group": "resource", "lat": 38.14505830919822, "lon": 125.46725335980916, "alt_km": 505.0250908711805, "timestamp": "2025-12-03T22:42:32.314587+00:00", "meta": {"OBJECT_NAME": "LEGION 3", "OBJECT_ID": "2024-146A", "EPOCH": "2025-12-03T11:06:47.105280", "MEAN_MOTION": 15.15600979, "ECCENTRICITY": 0.00138, "INCLINATION": 45.0022, "RA_OF_ASC_NODE": 359.8579, "ARG_OF_PERICENTER": 145.9864, "MEAN_ANOMALY": 214.1901, "EPHEMERIS_TYPE": 0, "CLASSIFICATION_TYPE": "U", "NORAD_CAT_ID": 60452, "ELEMENT_SET_NO": 999, "REV_AT_EPOCH": 7232, "BSTAR": 0.00040912, "MEAN_MOTION_DOT": 7.661e-05, "MEAN_MOTION_DDOT": 0}, "tle": {"line1": "1 60452U 24146A   25337.46304520  .00007661  00000+0  40912-3 0  9996", "line2": "2 60452  45.0022 359.8579 0013800 145.9864 214.1901 15.15600979 72322"}}, "geometry": {"type": "Point", "coordinates": [125.46725335980916, 38.14505830919822]}}]}